{"type": "FeatureCollection", "features": [ {"type": "Feature", "properties": {"norad_id": 45358, "name": "COSMOS 2545 (760)", "group": "glo-ops", "lat": 25.02261167144219, "lon": 126.38683439103914, "alt_km": 19130.443949412693, "timestamp": "2025-12-03T17:47:50.979040+00:00", "meta": {"OBJECT_NAME": "COSMOS 2545 (760)", "OBJECT_ID": "2020-018A", "EPOCH": "2025-12-01T04:43:25.038912", "MEAN_MOTION": 2.13102323, "ECCENTRICITY": 0.00119194, "INCLINATION": 64.4762, "RA_OF_ASC_NODE": 319.3749, "ARG_OF_PERICENTER": 248.338, "MEAN_ANOMALY": 111.5456, "EPHEMERIS_TYPE": 0, "CLASSIFICATION_TYPE": "U", "NORAD_CAT_ID": 45358, "ELEMENT_SET_NO": 999, "REV_AT_EPOCH": 4444, "BSTAR": 0, "MEAN_MOTION_DOT": -2.8e-07, "MEAN_MOTION_DDOT": 0}, "tle": {"line1": "1 45358U 20018A   25335.19681758 -.00000028  00000+0  00000+0 0  9998", "line2": "2 45358  64.4762 319.3749 0011919 248.3380 111.5456  2.13102323 44447"}}, "geometry": {"type": "Point", "coordinates": [126.38683439103914, 25.02261167144219]}}, {"type": "Feature", "properties": {"norad_id": 46805, "name": "COSMOS 2547 (705K)", "group": "glo-ops", "lat": 7.214376086406802, "lon": -157.55308467175334, "alt_km": 19141.71633298185, "timestamp": "2025-12-03T17:47:50.979051+00:00", "meta": {"OBJECT_NAME": "COSMOS 2547 (705K)", "OBJECT_ID": "2020-075A", "EPOCH": "2025-11-30T21:58:22.930752", "MEAN_MOTION": 2.13099889, "ECCENTRICITY": 0.00063143, "INCLINATION": 64.5957, "RA_OF_ASC_NODE": 199.0914, "ARG_OF_PERICENTER": 229.6069, "MEAN_ANOMALY": 130.4292, "EPHEMERIS_TYPE": 0, "CLASSIFICATION_TYPE": "U", "NORAD_CAT_ID": 46805, "ELEMENT_SET_NO": 999, "REV_AT_EPOCH": 3968, "BSTAR": 0, "MEAN_MOTION_DOT": 9.8e-07, "MEAN_MOTION_DDOT": 0}, "tle": {"line1": "1 46805U 20075A   25334.91554318  .00000098  00000+0  00000+0 0  9995", "line2": "2 46805  64.5957 199.0914 0006314 229.6069 130.4292  2.13099889 39688"}}, "geometry": {"type": "Point", "coordinates": [-157.55308467175334, 7.214376086406802]}}, {"type": "Feature", "properties": {"norad_id": 52984, "name": "COSMOS 2557 (706K)", "group": "glo-ops", "lat": -52.05590568079788, "lon": 179.27978788618992, "alt_km": 19107.1377045285, "timestamp": "2025-12-03T17:47:50.979062+00:00", "meta": {"OBJECT_NAME": "COSMOS 2557 (706K)", "OBJECT_ID": "2022-075A", "EPOCH": "2025-12-01T01:56:28.375008", "MEAN_MOTION": 2.13101767, "ECCENTRICITY": 0.00137561, "INCLINATION": 64.4163, "RA_OF_ASC_NODE": 321.4618, "ARG_OF_PERICENTER": 276.3647, "MEAN_ANOMALY": 83.4921, "EPHEMERIS_TYPE": 0, "CLASSIFICATION_TYPE": "U", "NORAD_CAT_ID": 52984, "ELEMENT_SET_NO": 999, "REV_AT_EPOCH": 2649, "BSTAR": 0, "MEAN_MOTION_DOT": -2.7e-07, "MEAN_MOTION_DDOT": 0}, "tle": {"line1": "1 52984U 22075A   25335.08088397 -.00000027  00000+0  00000+0 0  9993", "line2": "2 52984  64.4163 321.4618 0013756 276.3647  83.4921  2.13101767 26492"}}, "geometry": {"type": "Point", "coordinates": [179.27978788618992, -52.05590568079788]}}, {"type": "Feature", "properties": {"norad_id": 54031, "name": "COSMOS 2559 (707K)", "group": "glo-ops", "lat": 17.85405905391093, "lon": -29.660620261216426, "alt_km": 19158.5546005628, "timestamp": "2025-12-03T17:47:50.979073+00:00", "meta": {"OBJECT_NAME": "COSMOS 2559 (707K)", "OBJECT_ID": "2022-130A", "EPOCH": "2025-12-03T05:54:42.850656", "MEAN_MOTION": 2.13101242, "ECCENTRICITY": 0.0012048, "INCLINATION": 64.3873, "RA_OF_ASC_NODE": 321.4753, "ARG_OF_PERICENTER": 192.7685, "MEAN_ANOMALY": 167.2057, "EPHEMERIS_TYPE": 0, "CLASSIFICATION_TYPE": "U", "NORAD_CAT_ID": 54031, "ELEMENT_SET_NO": 999, "REV_AT_EPOCH": 2451, "BSTAR": 0, "MEAN_MOTION_DOT": -4.1e-07, "MEAN_MOTION_DDOT": 0}, "tle": {"line1": "1 54031U 22130A   25337.24632929 -.00000041  00000+0  00000+0 0  9992", "line2": "2 54031  64.3873 321.4753 0012048 192.7685 167.2057  2.13101242 24510"}}, "geometry": {"type": "Point", "coordinates": [-29.660620261216426, 17.85405905391093]}}, {"type": "Feature", "properties": {"norad_id": 54377, "name": "COSMOS 2564 (761)", "group": "glo-ops", "lat": 36.13191765539133, "lon": -0.9584308706485838, "alt_km": 19117.02886919493, "timestamp": "2025-12-03T17:47:50.979083+00:00", "meta": {"OBJECT_NAME": "COSMOS 2564 (761)", "OBJECT_ID": "2022-161A", "EPOCH": "2025-12-03T13:26:12.799968", "MEAN_MOTION": 2.13101953, "ECCENTRICITY": 0.0008712, "INCLINATION": 64.7377, "RA_OF_ASC_NODE": 199.204, "ARG_OF_PERICENTER": 206.2121, "MEAN_ANOMALY": 153.8409, "EPHEMERIS_TYPE": 0, "CLASSIFICATION_TYPE": "U", "NORAD_CAT_ID": 54377, "ELEMENT_SET_NO": 999, "REV_AT_EPOCH": 2346, "BSTAR": 0, "MEAN_MOTION_DOT": 1.05e-06, "MEAN_MOTION_DDOT": 0}, "tle": {"line1": "1 54377U 22161A   25337.55987037  .00000105  00000+0  00000+0 0  9996", "line2": "2 54377  64.7377 199.2040 0008712 206.2121 153.8409  2.13101953 23469"}}, "geometry": {"type": "Point", "coordinates": [-0.9584308706485838, 36.13191765539133]}}, {"type": "Feature", "properties": {"norad_id": 57517, "name": "COSMOS 2569 (703K)", "group": "glo-ops", "lat": 44.861892751715125, "lon": -128.1457856742083, "alt_km": 19148.39894470265, "timestamp": "2025-12-03T17:47:50.979094+00:00", "meta": {"OBJECT_NAME": "COSMOS 2569 (703K)", "OBJECT_ID": "2023-114A", "EPOCH": "2025-12-01T05:26:50.828352", "MEAN_MOTION": 2.13103848, "ECCENTRICITY": 0.0010073, "INCLINATION": 65.188, "RA_OF_ASC_NODE": 79.3026, "ARG_OF_PERICENTER": 287.0136, "MEAN_ANOMALY": 72.876, "EPHEMERIS_TYPE": 0, "CLASSIFICATION_TYPE": "U", "NORAD_CAT_ID": 57517, "ELEMENT_SET_NO": 999, "REV_AT_EPOCH": 1804, "BSTAR": 0, "MEAN_MOTION_DOT": -1.2e-07, "MEAN_MOTION_DDOT": 0}, "tle": {"line1": "1 57517U 23114A   25335.22697718 -.00000012  00000+0  00000+0 0  9998", "line2": "2 57517  65.1880  79.3026 0010073 287.0136  72.8760  2.13103848 18043"}}, "geometry": {"type": "Point", "coordinates": [-128.1457856742083, 44.861892751715125]}}, {"type": "Feature", "properties": {"norad_id": 63130, "name": "COSMOS 2584 (704K)", "group": "glo-ops", "lat": -32.325026027885585, "lon": -83.37831061331717, "alt_km": 19114.96298004835, "timestamp": "2025-12-03T17:47:50.979105+00:00", "meta": {"OBJECT_NAME": "COSMOS 2584 (704K)", "OBJECT_ID": "2025-042A", "EPOCH": "2025-11-26T10:06:10.904256", "MEAN_MOTION": 2.13103062, "ECCENTRICITY": 0.00075218, "INCLINATION": 64.9668, "RA_OF_ASC_NODE": 79.7019, "ARG_OF_PERICENTER": 212.3772, "MEAN_ANOMALY": 147.585, "EPHEMERIS_TYPE": 0, "CLASSIFICATION_TYPE": "U", "NORAD_CAT_ID": 63130, "ELEMENT_SET_NO": 999, "REV_AT_EPOCH": 572, "BSTAR": 0, "MEAN_MOTION_DOT": 1.8e-07, "MEAN_MOTION_DDOT": 0}, "tle": {"line1": "1 63130U 25042A   25330.42095954  .00000018  00000+0  00000+0 0  9994", "line2": "2 63130  64.9668  79.7019 0007521 212.3772 147.5850  2.13103062  5728"}}, "geometry": {"type": "Point", "coordinates": [-83.37831061331717, -32.325026027885585]}}, {"type": "Feature", "properties": {"norad_id": 65590, "name": "COSMOS 2596 (708K)", "group": "glo-ops", "lat": -22.678636089996616, "lon": -49.59626967068711, "alt_km": 19102.254707838776, "timestamp": "2025-12-03T17:47:50.979116+00:00", "meta": {"OBJECT_NAME": "COSMOS 2596 (708K)", "OBJECT_ID": "2025-206B", "EPOCH": "2025-12-01T01:16:47.699904", "MEAN_MOTION": 2.13100271, "ECCENTRICITY": 0.00140756, "INCLINATION": 64.7507, "RA_OF_ASC_NODE": 321.8815, "ARG_OF_PERICENTER": 304.7151, "MEAN_ANOMALY": 127.6712, "EPHEMERIS_TYPE": 0, "CLASSIFICATION_TYPE": "U", "NORAD_CAT_ID": 65590, "ELEMENT_SET_NO": 999, "REV_AT_EPOCH": 168, "BSTAR": 0, "MEAN_MOTION_DOT": -2.6e-07, "MEAN_MOTION_DDOT": 0}, "tle": {"line1": "1 65590U 25206B   25335.05332986 -.00000026  00000+0  00000+0 0  9991", "line2": "2 65590  64.7507 321.8815 0014075 304.7151 127.6712  2.13100271  1680"}}, "geometry": {"type": "Point", "coordinates": [-49.59626967068711, -22.678636089996616]}}]}